[Satellite]
VERSION=1.1
NAME=GLOBALSTAR M048
NICKNAME=GLOBALSTAR M048
TLE1=1 25872U 99041A   17186.08661485 -.00000053  00000-0  44800-3 0  9996
TLE2=2 25872  51.9388  29.0761 0012852 192.7954 341.7803 11.33810088795796
